[{"OBJECT_NAME":"STARLINK-5131","OBJECT_ID":"2022-125AJ","EPOCH":"2026-03-09T16:22:05.283840","MEAN_MOTION":15.08840974,"ECCENTRICITY":0.00012236,"INCLINATION":53.2168,"RA_OF_ASC_NODE":213.9943,"ARG_OF_PERICENTER":84.8018,"MEAN_ANOMALY":275.3113,"EPHEMERIS_TYPE":0,"CLASSIFICATION_TYPE":"U","NORAD_CAT_ID":53996,"ELEMENT_SET_NO":999,"REV_AT_EPOCH":18946,"BSTAR":-5.2875469e-5,"MEAN_MOTION_DOT":-1.129e-5,"MEAN_MOTION_DDOT":0},{"OBJECT_NAME":"OBJECT D","OBJECT_ID":"2025-013D","EPOCH":"2026-03-09T22:45:56.369376","MEAN_MOTION":15.10588544,"ECCENTRICITY":0.0008827,"INCLINATION":97.6457,"RA_OF_ASC_NODE":238.3603,"ARG_OF_PERICENTER":18.3993,"MEAN_ANOMALY":341.7554,"EPHEMERIS_TYPE":0,"CLASSIFICATION_TYPE":"U","NORAD_CAT_ID":62732,"ELEMENT_SET_NO":999,"REV_AT_EPOCH":6229,"BSTAR":0.00036300228,"MEAN_MOTION_DOT":5.935e-5,"MEAN_MOTION_DDOT":0}]
